OBJECT_NAME,OBJECT_ID,EPOCH,MEAN_MOTION,ECCENTRICITY,INCLINATION,RA_OF_ASC_NODE,ARG_OF_PERICENTER,MEAN_ANOMALY,EPHEMERIS_TYPE,CLASSIFICATION_TYPE,NORAD_CAT_ID,ELEMENT_SET_NO,REV_AT_EPOCH,BSTAR,MEAN_MOTION_DOT,MEAN_MOTION_DDOT
COSMOS 2534 (758),2019-030A,2026-07-12T08:17:14.251776,2.13102039,.0013534,64.3707,191.7692,274.9561,84.6521,0,U,44299,999,5545,0,.95E-6,0
BEIDOU-3 IGSO-2 (C39),2019-035A,2026-07-12T19:12:35.206272,1.00258293,.0039625,55.2503,158.6383,216.5497,322.2986,0,U,44337,999,2592,0,-.121E-5,0
GPS BIII-2  (PRN 18),2019-056A,2026-07-12T08:46:49.051200,2.00569838,.00633189,55.6235,330.1426,198.1269,10.0581,0,U,44506,999,5057,0,-.89E-6,0
BEIDOU-3 M24 (C46),2019-061A,2026-07-13T00:23:21.301728,1.86229159,.0008601,54.3975,181.8569,359.3910,0.5969,0,U,44542,999,4627,0,.66E-6,0
BEIDOU-3 M23 (C45),2019-061B,2026-07-12T20:41:13.994592,1.86227255,.0005883,54.3962,181.8306,340.0986,187.9044,0,U,44543,999,4627,0,.69E-6,0
EUTELSAT 5 WEST B (EGNOS/PRN 121),2019-067A,2026-07-13T04:15:38.675808,1.00271516,.0002973,0.0626,354.4696,118.9937,236.5006,0,U,44624,999,2469,0,-.44E-6,0
BEIDOU-3 M22 (C44),2019-078A,2026-07-12T20:33:18.703872,1.86227319,.0005691,53.9110,298.9248,49.8475,310.2295,0,U,44793,999,4512,0,-.62E-6,0
BEIDOU-3 M21 (C43),2019-078B,2026-07-12T11:01:29.008992,1.86227618,.0003703,53.8852,298.8992,52.5088,307.5509,0,U,44794,999,4512,0,-.62E-6,0
COSMOS 2544 (759),2019-088A,2026-07-11T10:20:31.607232,2.13103003,.00123436,65.5781,72.9223,255.3717,104.5561,0,U,44850,999,5123,0,-.19E-6,0
BEIDOU-3 M19 (C41),2019-090A,2026-07-12T08:38:39.850944,1.86231323,.00168515,56.5807,61.9598,297.6742,193.4156,0,U,44864,999,4470,0,-.41E-6,0
BEIDOU-3 M20 (C42),2019-090B,2026-07-12T06:03:50.694912,1.86231124,.0014506,56.5819,61.9971,312.8069,195.7820,0,U,44865,999,4468,0,-.41E-6,0
BEIDOU-3 G2 (C60),2020-017A,2026-07-13T03:34:46.326720,1.00269258,.0001989,2.9142,47.6921,60.7900,316.2787,0,U,45344,999,2352,0,-.144E-5,0
COSMOS 2545 (760),2020-018A,2026-07-07T20:55:22.502208,2.13102711,.00092133,64.3418,311.6924,230.0449,129.8870,0,U,45358,999,4910,0,-.52E-6,0
BEIDOU-3 G3 (C61),2020-040A,2026-07-13T05:26:06.105120,1.00264739,.0001702,2.5078,67.4722,326.9232,88.6627,0,U,45807,999,2233,0,-.357E-5,0
GPS BIII-3  (PRN 23),2020-041A,2026-07-11T09:55:43.247136,2.00557807,.00649629,56.6842,28.0045,204.6177,333.3873,0,U,45854,999,4452,0,-.52E-6,0
GALAXY 30 (WAAS/PRN 135),2020-056C,2026-07-13T04:35:21.262848,1.00271179,.0001953,0.0180,34.6058,79.9439,120.3515,0,U,46114,999,2155,0,.35E-6,0
COSMOS 2547 (705K),2020-075A,2026-07-12T06:50:10.603680,2.13100039,.00094361,64.6015,191.6377,239.7427,120.1879,0,U,46805,999,4444,0,.96E-6,0
GPS BIII-4  (PRN 14),2020-078A,2026-07-12T22:39:22.914144,2.00564842,.0074497,53.9776,209.7341,207.7475,332.4229,0,U,46826,999,4202,0,.84E-6,0
GPS BIII-5  (PRN 11),2021-054A,2026-07-12T22:23:31.401312,2.00567088,.0026407,55.1610,331.4250,228.5393,130.0348,0,U,48859,999,3726,0,-.91E-6,0
QZS-1R (QZSS/PRN 196),2021-096A,2026-07-12T13:50:38.811840,1.00245962,.075501,37.5114,79.2075,272.2000,278.6576,0,U,49336,999,1726,0,-.3E-5,0
GSAT0223 (GALILEO 27),2021-116A,2026-07-12T19:14:20.037120,1.70475864,.0002431,57.1512,340.9841,195.8611,164.1379,0,U,49809,999,2861,0,-.91E-6,0
GSAT0224 (GALILEO 28),2021-116B,2026-07-10T06:33:55.425024,1.70475962,.000179,57.1533,341.0513,180.2049,180.8962,0,U,49810,999,2860,0,-.8E-6,0
COSMOS 2557 (706K),2022-075A,2026-07-11T00:59:19.008672,2.13102395,.00107774,64.2833,313.6457,271.9721,87.9097,0,U,52984,999,3122,0,-.63E-6,0
COSMOS 2559 (707K),2022-130A,2026-07-12T17:42:37.179648,2.13101617,.0013055,64.2546,313.6678,180.7671,179.2365,0,U,54031,999,2923,0,-.64E-6,0
COSMOS 2564 (761),2022-161A,2026-07-13T01:12:29.359584,2.13101967,.0012249,64.7437,191.8531,225.0211,134.8990,0,U,54377,999,2818,0,.84E-6,0
GPS BIII-6  (PRN 28),2023-009A,2026-07-13T03:10:26.158080,2.00569666,.0006209,55.1237,147.4991,321.2401,219.8383,0,U,55268,999,2576,0,.1E-6,0
BEIDOU-3 G4 (C62),2023-066A,2026-07-13T03:51:52.187616,1.00273110,.0004867,0.4623,338.2773,188.1062,322.6791,0,U,56564,999,1165,0,-.282E-5,0
NVS-01 (IRNSS-1J),2023-076A,2026-07-13T00:23:35.509344,1.00265618,.0003565,2.1071,243.1849,7.4431,175.6387,0,U,56759,999,1137,0,-.337E-5,0
COSMOS 2569 (703K),2023-114A,2026-07-13T01:30:12.744000,2.13103690,.0009748,65.3169,71.7482,296.0932,63.8786,0,U,57517,999,2281,0,-.12E-6,0
BEIDOU-3 M28 (C50),2023-207A,2026-07-11T23:59:06.940896,1.86229629,.00025144,55.7747,61.4661,3.1911,356.8781,0,U,58654,999,1730,0,-.44E-6,0
BEIDOU-3 M26 (C48),2023-207B,2026-07-12T20:53:57.178752,1.86229638,.000206,55.7779,61.4233,324.6713,35.3855,0,U,58655,999,1730,0,-.42E-6,0
